IRIDIUM 150             
1 43257U 18030J   23263.80712146  .00000027  00000+0  26614-5 0  9990
2 43257  86.4028 348.5667 0002094  87.2926 272.8510 14.34216273286777
IRIDIUM 143             
1 43258U 18030K   23263.64855422  .00000479  00000+0  16391-3 0  9998
2 43258  86.4030 348.6853 0001927  95.1321 265.0094 14.34221250286682
IRIDIUM 161             
1 43478U 18047C   23263.72499579  .00000562  00000+0  16098-3 0  9993
2 43478  86.4527 146.6344 0002251  81.8628 278.2828 14.43280787280833
IRIDIUM 152             
1 43479U 18047D   23263.76082207  .00000408  00000+0  13873-3 0  9991
2 43479  86.4001 146.4795 0001833  86.3171 273.8234 14.34215410279096
IRIDIUM 147             
1 43480U 18047E   23263.76715558  .00000017  00000+0 -84385-6 0  9991
2 43480  86.4005 146.4642 0002225  84.6903 275.4547 14.34219368279094
IRIDIUM 110             
1 43481U 18047F   23263.77349715  .00000423  00000+0  14398-3 0  9995
2 43481  86.4006 146.5277 0002317  79.9662 280.1795 14.34219318279084
IRIDIUM 162             
1 43482U 18047G   23263.71866544  .00000554  00000+0  15859-3 0  9992
2 43482  86.4526 146.5408 0002153  82.4220 277.7225 14.43278852280827
IRIDIUM 160             
1 43569U 18061A   23263.71933815  .00000382  00000+0  12939-3 0  9995
2 43569  86.3935 114.9323 0002101  92.9947 267.1490 14.34219256269979
